ATLAS CENTAUR 2         
1 00694U 63047A   26089.68244206  .00003315  00000+0  39144-3 0  9991
2 00694  30.3579  78.3146 0547408 265.3122  88.4785 14.12154687134597
THOR AGENA D R/B        
1 00733U 64002A   26089.87277684  .00000256  00000+0  10862-3 0  9991
2 00733  99.1213 104.3645 0032664 195.1305 164.8904 14.34031412241336
SL-3 R/B                
1 00877U 64053B   26089.83794540  .00000277  00000+0  77778-4 0  9990
2 00877  65.0756 269.2322 0080479 285.5721  73.6506 14.61382797269885
SL-8 R/B                
1 02802U 67045B   26089.88913363  .00000355  00000+0  10595-3 0  9995
2 02802  74.0108 308.4990 0064941 310.0785  49.4689 14.45639173 92087
SL-8 R/B                
1 03230U 68040B   26089.93836950  .00004414  00000+0  32558-3 0  9992
2 03230  74.0290 270.2686 0023290  85.5331 274.8518 15.03403721 93209
OAO 2                   
1 03597U 68110A   26089.82420067  .00000302  00000+0  86618-4 0  9991
2 03597  34.9923 147.2204 0005564   1.1531 358.9172 14.47319828 22160
ISIS 1                  
1 03669U 69009A   26089.60595972  .00000168  00000+0  10645-3 0  9999
2 03669  88.4502 153.0256 1707829  46.9695 326.2275 11.30419578350899
SERT 2                  
1 04327U 70009A   26089.82332140  .00000003  00000+0  60224-4 0  9990
2 04327  99.2787  31.7635 0005656 107.2045 270.5126 13.58731815782761
SL-3 R/B                
1 05118U 71028B   26089.92387780  .00054596  00000+0  59481-3 0  9990
2 05118  81.2374  25.7680 0014686 197.8363 162.2377 15.63049790991980
ASTEX 1                 
1 05560U 71089A   26089.92802061  .00000590  00000+0  14985-3 0  9997
2 05560  92.7089 158.6238 0016145  21.3868 338.8009 14.50791433865389
SL-8 R/B                
1 05730U 71119B   26089.87521407  .00009634  00000+0  50372-3 0  9994
2 05730  73.8856 136.1087 0546327  98.2529 268.0933 14.38262751658539
OAO 3 (COPERNICUS)      
1 06153U 72065A   26089.60992648  .00000426  00000+0  91673-4 0  9995
2 06153  35.0048 178.1212 0007010 327.6028 177.9608 14.60014830849258
