CCSDS_OMM_VERS = 2.0
CREATION_DATE  = 
ORIGINATOR     = 

OBJECT_NAME    = ATLAS CENTAUR 2
OBJECT_ID      = 1963-047A
CENTER_NAME    = EARTH
REF_FRAME      = TEME
TIME_SYSTEM    = UTC
MEAN_ELEMENT_THEORY = SGP/SGP4

EPOCH          = 2026-03-30T16:22:42.993984
MEAN_MOTION    = 14.12154687
ECCENTRICITY   = .05474084
INCLINATION    = 30.3579
RA_OF_ASC_NODE = 78.3146
ARG_OF_PERICENTER = 265.3122
MEAN_ANOMALY   = 88.4785

EPHEMERIS_TYPE = 0
CLASSIFICATION_TYPE = U
NORAD_CAT_ID   = 694
ELEMENT_SET_NO = 999
REV_AT_EPOCH   = 13459
BSTAR          = .39143626E-3
MEAN_MOTION_DOT = .3315E-4
MEAN_MOTION_DDOT = 0

CCSDS_OMM_VERS = 2.0
CREATION_DATE  = 
ORIGINATOR     = 

OBJECT_NAME    = THOR AGENA D R/B
OBJECT_ID      = 1964-002A
CENTER_NAME    = EARTH
REF_FRAME      = TEME
TIME_SYSTEM    = UTC
MEAN_ELEMENT_THEORY = SGP/SGP4

EPOCH          = 2026-03-30T20:56:47.918976
MEAN_MOTION    = 14.34031412
ECCENTRICITY   = .00326641
INCLINATION    = 99.1213
RA_OF_ASC_NODE = 104.3645
ARG_OF_PERICENTER = 195.1305
MEAN_ANOMALY   = 164.8904

EPHEMERIS_TYPE = 0
CLASSIFICATION_TYPE = U
NORAD_CAT_ID   = 733
ELEMENT_SET_NO = 999
REV_AT_EPOCH   = 24133
BSTAR          = .10861779E-3
MEAN_MOTION_DOT = .256E-5
MEAN_MOTION_DDOT = 0

CCSDS_OMM_VERS = 2.0
CREATION_DATE  = 
ORIGINATOR     = 

OBJECT_NAME    = SL-3 R/B
OBJECT_ID      = 1964-053B
CENTER_NAME    = EARTH
REF_FRAME      = TEME
TIME_SYSTEM    = UTC
MEAN_ELEMENT_THEORY = SGP/SGP4

EPOCH          = 2026-03-30T20:06:38.482560
MEAN_MOTION    = 14.61382797
ECCENTRICITY   = .00804794
INCLINATION    = 65.0756
RA_OF_ASC_NODE = 269.2322
ARG_OF_PERICENTER = 285.5721
MEAN_ANOMALY   = 73.6506

EPHEMERIS_TYPE = 0
CLASSIFICATION_TYPE = U
NORAD_CAT_ID   = 877
ELEMENT_SET_NO = 999
REV_AT_EPOCH   = 26988
BSTAR          = .77777863E-4
MEAN_MOTION_DOT = .277E-5
MEAN_MOTION_DDOT = 0

CCSDS_OMM_VERS = 2.0
CREATION_DATE  = 
ORIGINATOR     = 

OBJECT_NAME    = SL-8 R/B
OBJECT_ID      = 1967-045B
CENTER_NAME    = EARTH
REF_FRAME      = TEME
TIME_SYSTEM    = UTC
MEAN_ELEMENT_THEORY = SGP/SGP4

EPOCH          = 2026-03-30T21:20:21.145632
MEAN_MOTION    = 14.45639173
ECCENTRICITY   = .00649416
INCLINATION    = 74.0108
RA_OF_ASC_NODE = 308.4990
ARG_OF_PERICENTER = 310.0785
MEAN_ANOMALY   = 49.4689

EPHEMERIS_TYPE = 0
CLASSIFICATION_TYPE = U
NORAD_CAT_ID   = 2802
ELEMENT_SET_NO = 999
REV_AT_EPOCH   = 9208
BSTAR          = .10594593E-3
MEAN_MOTION_DOT = .355E-5
MEAN_MOTION_DDOT = 0

CCSDS_OMM_VERS = 2.0
CREATION_DATE  = 
ORIGINATOR     = 

OBJECT_NAME    = SL-8 R/B
OBJECT_ID      = 1968-040B
CENTER_NAME    = EARTH
REF_FRAME      = TEME
TIME_SYSTEM    = UTC
MEAN_ELEMENT_THEORY = SGP/SGP4

EPOCH          = 2026-03-30T22:31:15.124800
MEAN_MOTION    = 15.03403721
ECCENTRICITY   = .00232901
INCLINATION    = 74.0290
RA_OF_ASC_NODE = 270.2686
ARG_OF_PERICENTER = 85.5331
MEAN_ANOMALY   = 274.8518

EPHEMERIS_TYPE = 0
CLASSIFICATION_TYPE = U
NORAD_CAT_ID   = 3230
ELEMENT_SET_NO = 999
REV_AT_EPOCH   = 9320
BSTAR          = .32558453E-3
MEAN_MOTION_DOT = .4414E-4
MEAN_MOTION_DDOT = 0

CCSDS_OMM_VERS = 2.0
CREATION_DATE  = 
ORIGINATOR     = 

OBJECT_NAME    = OAO 2
OBJECT_ID      = 1968-110A
CENTER_NAME    = EARTH
REF_FRAME      = TEME
TIME_SYSTEM    = UTC
MEAN_ELEMENT_THEORY = SGP/SGP4

EPOCH          = 2026-03-30T19:46:50.937888
MEAN_MOTION    = 14.47319828
ECCENTRICITY   = .00055649
INCLINATION    = 34.9923
RA_OF_ASC_NODE = 147.2204
ARG_OF_PERICENTER = 1.1531
MEAN_ANOMALY   = 358.9172

EPHEMERIS_TYPE = 0
CLASSIFICATION_TYPE = U
NORAD_CAT_ID   = 3597
ELEMENT_SET_NO = 999
REV_AT_EPOCH   = 2216
BSTAR          = .86617704E-4
MEAN_MOTION_DOT = .302E-5
MEAN_MOTION_DDOT = 0

CCSDS_OMM_VERS = 2.0
CREATION_DATE  = 
ORIGINATOR     = 

OBJECT_NAME    = ISIS 1
OBJECT_ID      = 1969-009A
CENTER_NAME    = EARTH
REF_FRAME      = TEME
TIME_SYSTEM    = UTC
MEAN_ELEMENT_THEORY = SGP/SGP4

EPOCH          = 2026-03-30T14:32:34.919808
MEAN_MOTION    = 11.30419578
ECCENTRICITY   = .17078292
INCLINATION    = 88.4502
RA_OF_ASC_NODE = 153.0256
ARG_OF_PERICENTER = 46.9695
MEAN_ANOMALY   = 326.2275

EPHEMERIS_TYPE = 0
CLASSIFICATION_TYPE = U
NORAD_CAT_ID   = 3669
ELEMENT_SET_NO = 999
REV_AT_EPOCH   = 35089
BSTAR          = .10645248E-3
MEAN_MOTION_DOT = .168E-5
MEAN_MOTION_DDOT = 0

CCSDS_OMM_VERS = 2.0
CREATION_DATE  = 
ORIGINATOR     = 

OBJECT_NAME    = SERT 2
OBJECT_ID      = 1970-009A
CENTER_NAME    = EARTH
REF_FRAME      = TEME
TIME_SYSTEM    = UTC
MEAN_ELEMENT_THEORY = SGP/SGP4

EPOCH          = 2026-03-30T19:45:34.968960
MEAN_MOTION    = 13.58731815
ECCENTRICITY   = .00056561
INCLINATION    = 99.2787
RA_OF_ASC_NODE = 31.7635
ARG_OF_PERICENTER = 107.2045
MEAN_ANOMALY   = 270.5126

EPHEMERIS_TYPE = 0
CLASSIFICATION_TYPE = U
NORAD_CAT_ID   = 4327
ELEMENT_SET_NO = 999
REV_AT_EPOCH   = 78276
BSTAR          = .60223866E-4
MEAN_MOTION_DOT = .3E-7
MEAN_MOTION_DDOT = 0

CCSDS_OMM_VERS = 2.0
CREATION_DATE  = 
ORIGINATOR     = 

OBJECT_NAME    = SL-3 R/B
OBJECT_ID      = 1971-028B
CENTER_NAME    = EARTH
REF_FRAME      = TEME
TIME_SYSTEM    = UTC
MEAN_ELEMENT_THEORY = SGP/SGP4

EPOCH          = 2026-03-30T22:10:23.041920
MEAN_MOTION    = 15.63049790
ECCENTRICITY   = .00146864
INCLINATION    = 81.2374
RA_OF_ASC_NODE = 25.7680
ARG_OF_PERICENTER = 197.8363
MEAN_ANOMALY   = 162.2377

EPHEMERIS_TYPE = 0
CLASSIFICATION_TYPE = U
NORAD_CAT_ID   = 5118
ELEMENT_SET_NO = 999
REV_AT_EPOCH   = 99198
BSTAR          = .59481499E-3
MEAN_MOTION_DOT = .54596E-3
MEAN_MOTION_DDOT = 0

CCSDS_OMM_VERS = 2.0
CREATION_DATE  = 
ORIGINATOR     = 

OBJECT_NAME    = ASTEX 1
OBJECT_ID      = 1971-089A
CENTER_NAME    = EARTH
REF_FRAME      = TEME
TIME_SYSTEM    = UTC
MEAN_ELEMENT_THEORY = SGP/SGP4

EPOCH          = 2026-03-30T22:16:20.980704
MEAN_MOTION    = 14.50791433
ECCENTRICITY   = .00161459
INCLINATION    = 92.7089
RA_OF_ASC_NODE = 158.6238
ARG_OF_PERICENTER = 21.3868
MEAN_ANOMALY   = 338.8009

EPHEMERIS_TYPE = 0
CLASSIFICATION_TYPE = U
NORAD_CAT_ID   = 5560
ELEMENT_SET_NO = 999
REV_AT_EPOCH   = 86538
BSTAR          = .14985291E-3
MEAN_MOTION_DOT = .59E-5
MEAN_MOTION_DDOT = 0

CCSDS_OMM_VERS = 2.0
CREATION_DATE  = 
ORIGINATOR     = 

OBJECT_NAME    = SL-8 R/B
OBJECT_ID      = 1971-119B
CENTER_NAME    = EARTH
REF_FRAME      = TEME
TIME_SYSTEM    = UTC
MEAN_ELEMENT_THEORY = SGP/SGP4

EPOCH          = 2026-03-30T21:00:18.495648
MEAN_MOTION    = 14.38262751
ECCENTRICITY   = .05463276
INCLINATION    = 73.8856
RA_OF_ASC_NODE = 136.1087
ARG_OF_PERICENTER = 98.2529
MEAN_ANOMALY   = 268.0933

EPHEMERIS_TYPE = 0
CLASSIFICATION_TYPE = U
NORAD_CAT_ID   = 5730
ELEMENT_SET_NO = 999
REV_AT_EPOCH   = 65853
BSTAR          = .50371684E-3
MEAN_MOTION_DOT = .9634E-4
MEAN_MOTION_DDOT = 0

CCSDS_OMM_VERS = 2.0
CREATION_DATE  = 
ORIGINATOR     = 

OBJECT_NAME    = OAO 3 (COPERNICUS)
OBJECT_ID      = 1972-065A
CENTER_NAME    = EARTH
REF_FRAME      = TEME
TIME_SYSTEM    = UTC
MEAN_ELEMENT_THEORY = SGP/SGP4

EPOCH          = 2026-03-30T14:38:17.647872
MEAN_MOTION    = 14.60014830
ECCENTRICITY   = .000701
INCLINATION    = 35.0048
RA_OF_ASC_NODE = 178.1212
ARG_OF_PERICENTER = 327.6028
MEAN_ANOMALY   = 177.9608

EPHEMERIS_TYPE = 0
CLASSIFICATION_TYPE = U
NORAD_CAT_ID   = 6153
ELEMENT_SET_NO = 999
REV_AT_EPOCH   = 84925
BSTAR          = .91672694E-4
MEAN_MOTION_DOT = .426E-5
MEAN_MOTION_DDOT = 0

